ISS (ZARYA)             
1 25544U 98067A   26115.61933538  .00010271  00000+0  19457-3 0  9992
2 25544  51.6320 200.2872 0006949 349.7097  10.3748 15.48952974563604
POISK                   
1 36086U 09060A   26115.61933538  .00010271  00000+0  19457-3 0  9990
2 36086  51.6320 200.2872 0006949 349.7097  10.3748 15.48952974563528
CSS (TIANHE)            
1 48274U 21035A   26115.90640323  .00030509  00000+0  32916-3 0  9998
2 48274  41.4670 280.3691 0006843 274.1107  85.8950 15.62962461284990
ISS (NAUKA)             
1 49044U 21066A   26115.61933538  .00010271  00000+0  19457-3 0  9998
2 49044  51.6320 200.2872 0006949 349.7097  10.3748 15.48952974563560
FREGAT DEB              
1 49271U 11037PF  26115.48463640  .00007383  00000+0  11304-1 0  9995
2 49271  51.6455 160.2244 0940570 166.6488 196.1217 12.41059581218503
CSS (WENTIAN)           
1 53239U 22085A   26115.90640323  .00030509  00000+0  32916-3 0  9991
2 53239  41.4670 280.3691 0006843 274.1107  85.8950 15.62962461283132
CSS (MENGTIAN)          
1 54216U 22143A   26115.90640323  .00030509  00000+0  32916-3 0  9992
2 54216  41.4670 280.3691 0006843 274.1107  85.8950 15.62962461284847
TIANZHOU-9              
1 64786U 25149A   26115.90640323  .00030509  00000+0  32916-3 0  9994
2 64786  41.4670 280.3691 0006843 274.1107  85.8950 15.62962461284851
HRC MONOBLOCK CAMERA    
1 66052U 98067XR  26115.57566632  .00051186  00000+0  46733-3 0  9990
2 66052  51.6264 187.9788 0004754 333.5685  26.5068 15.67324407 29733
HTV-X1                  
1 66174U 25241A   26112.99220554  .00004413  00000+0  14900-3 0  9994
2 66174  51.6353 219.4042 0007821 344.1053  15.9682 15.32728944 27734
SZ-21 MODULE            
1 66515U 25246C   26114.73427522  .00034872  00000+0  25922-3 0  9994
2 66515  41.4730 279.1403 0004099 320.8652  39.1894 15.72087630 25312
SHENZHOU-22             
1 66645U 25272A   26115.90640323  .00030509  00000+0  32916-3 0  9997
2 66645  41.4670 280.3691 0006843 274.1107  85.8950 15.62962461284868
SOYUZ-MS 28             
1 66664U 25275A   26115.61933538  .00010271  00000+0  19457-3 0  9991
2 66664  51.6320 200.2872 0006949 349.7097  10.3748 15.48952974563804
DUPLEX                  
1 66906U 98067XS  26115.48177498  .00032683  00000+0  41451-3 0  9999
2 66906  51.6278 194.8674 0004751 341.6920  18.3901 15.59125048 22421
ISS OBJECT XT           
1 66907U 98067XT  26115.21100624  .00552345  13367-3  14800-2 0  9991
2 66907  51.6169 184.6881 0012238 356.6969   3.3956 15.93737801 22536
ISS OBJECT XU           
1 66908U 98067XU  26115.57559519  .00546499  13284-3  13776-2 0  9994
2 66908  51.6177 182.6134 0011732 356.6262   3.4664 15.94888468 22599
